{
  "norad_id": 39410,
  "name": "YAOGAN-19",
  "history": [
    {
      "epoch": "2026-03-28T22:22:12.059328Z",
      "apogee_km": 1208.2575880424047,
      "perigee_km": 1195.055861312133,
      "latitude_deg": 5.614756370512134e-05,
      "longitude_deg": -93.9602970271653,
      "height_km": 1203.976883919003,
      "semi_major_axis_km": 7579.793724677268,
      "eccentricity": 0.00087085,
      "inclination_deg": 100.1055,
      "raan_deg": 67.9354,
      "arg_perigee_deg": 273.5682,
      "mean_anomaly_deg": 86.4436,
      "mean_motion_rev_day": 13.1557824
    },
    {
      "epoch": "2026-03-29T05:40:14.612736Z",
      "apogee_km": 1208.2421032589318,
      "perigee_km": 1195.0623657379856,
      "latitude_deg": -4.9166731392527044e-05,
      "longitude_deg": 156.5196530649817,
      "height_km": 1204.0430945474259,
      "semi_major_axis_km": 7579.789234498458,
      "eccentricity": 0.0008694,
      "inclination_deg": 100.1054,
      "raan_deg": 68.2258,
      "arg_perigee_deg": 272.9586,
      "mean_anomaly_deg": 87.0532,
      "mean_motion_rev_day": 13.15579409
    },
    {
      "epoch": "2026-03-30T05:23:52.898784Z",
      "apogee_km": 1208.2270889705678,
      "perigee_km": 1195.063129785569,
      "latitude_deg": 5.6132129911550095e-05,
      "longitude_deg": 160.57926418662194,
      "height_km": 1204.3159945708842,
      "semi_major_axis_km": 7579.7821093780685,
      "eccentricity": 0.00086836,
      "inclination_deg": 100.1053,
      "raan_deg": 69.1694,
      "arg_perigee_deg": 270.5237,
      "mean_anomaly_deg": 89.4882,
      "mean_motion_rev_day": 13.15581264
    },
    {
      "epoch": "2026-03-30T05:23:52.903968Z",
      "apogee_km": 1208.2263490624264,
      "perigee_km": 1195.0648145873456,
      "latitude_deg": 3.810478351204843e-05,
      "longitude_deg": 160.57914572411605,
      "height_km": 1204.3172131072045,
      "semi_major_axis_km": 7579.782581824886,
      "eccentricity": 0.0008682,
      "inclination_deg": 100.1053,
      "raan_deg": 69.1693,
      "arg_perigee_deg": 270.5173,
      "mean_anomaly_deg": 89.4946,
      "mean_motion_rev_day": 13.15581141
    },
    {
      "epoch": "2026-03-30T14:31:26.118624Z",
      "apogee_km": 1208.2302569156654,
      "perigee_km": 1195.0631114864937,
      "latitude_deg": 8.034645370666128e-05,
      "longitude_deg": 23.67885716684471,
      "height_km": 1204.425651539793,
      "semi_major_axis_km": 7579.783684201079,
      "eccentricity": 0.00086857,
      "inclination_deg": 100.1053,
      "raan_deg": 69.5322,
      "arg_perigee_deg": 269.5831,
      "mean_anomaly_deg": 90.4288,
      "mean_motion_rev_day": 13.15580854
    },
    {
      "epoch": "2026-03-30T21:49:28.647840Z",
      "apogee_km": 1208.2435738154018,
      "perigee_km": 1195.0480814864013,
      "latitude_deg": -2.667776831040128e-05,
      "longitude_deg": -85.84119110412989,
      "height_km": 1204.5215901579973,
      "semi_major_axis_km": 7579.782827650902,
      "eccentricity": 0.00087044,
      "inclination_deg": 100.1053,
      "raan_deg": 69.8225,
      "arg_perigee_deg": 268.7435,
      "mean_anomaly_deg": 91.2681,
      "mean_motion_rev_day": 13.15581077
    },
    {
      "epoch": "2026-03-31T21:33:06.945984Z",
      "apogee_km": 1208.2323661185465,
      "perigee_km": 1195.060218712987,
      "latitude_deg": 3.790139601970483e-06,
      "longitude_deg": -81.7814165338593,
      "height_km": 1204.8087498056746,
      "semi_major_axis_km": 7579.7832924157665,
      "eccentricity": 0.0008689,
      "inclination_deg": 100.1055,
      "raan_deg": 70.7663,
      "arg_perigee_deg": 266.2449,
      "mean_anomaly_deg": 93.7671,
      "mean_motion_rev_day": 13.15580956
    },
    {
      "epoch": "2026-04-01T21:16:45.308064Z",
      "apogee_km": 1208.2513463632713,
      "perigee_km": 1195.0503878139498,
      "latitude_deg": -4.2960651048058186e-05,
      "longitude_deg": -77.72179552923616,
      "height_km": 1205.090114507017,
      "semi_major_axis_km": 7579.78786708861,
      "eccentricity": 0.0008708,
      "inclination_deg": 100.1056,
      "raan_deg": 71.7102,
      "arg_perigee_deg": 263.8416,
      "mean_anomaly_deg": 96.1705,
      "mean_motion_rev_day": 13.15579765
    },
    {
      "epoch": "2026-04-02T21:00:23.747040Z",
      "apogee_km": 1208.2685819543594,
      "perigee_km": 1195.0463884543678,
      "latitude_deg": -1.2223118172081913e-05,
      "longitude_deg": -73.66251002800415,
      "height_km": 1205.3679376218124,
      "semi_major_axis_km": 7579.794485204363,
      "eccentricity": 0.0008722,
      "inclination_deg": 100.1059,
      "raan_deg": 72.6541,
      "arg_perigee_deg": 261.4818,
      "mean_anomaly_deg": 98.5307,
      "mean_motion_rev_day": 13.15578042
    },
    {
      "epoch": "2026-04-02T22:49:54.393600Z",
      "apogee_km": 1208.2602320725646,
      "perigee_km": 1195.0551685333776,
      "latitude_deg": 7.090692337330345e-05,
      "longitude_deg": -101.04247617918476,
      "height_km": 1205.404796764826,
      "semi_major_axis_km": 7579.79470030297,
      "eccentricity": 0.00087107,
      "inclination_deg": 100.1059,
      "raan_deg": 72.7268,
      "arg_perigee_deg": 261.149,
      "mean_anomaly_deg": 98.8638,
      "mean_motion_rev_day": 13.15577986
    },
    {
      "epoch": "2026-04-03T20:44:02.180832Z",
      "apogee_km": 1208.253445431722,
      "perigee_km": 1195.061571069561,
      "latitude_deg": 1.1457300115978156e-05,
      "longitude_deg": -69.6031023452029,
      "height_km": 1205.6521295971365,
      "semi_major_axis_km": 7579.794508250641,
      "eccentricity": 0.0008702,
      "inclination_deg": 100.1061,
      "raan_deg": 73.5981,
      "arg_perigee_deg": 258.9572,
      "mean_anomaly_deg": 101.0563,
      "mean_motion_rev_day": 13.15578036
    },
    {
      "epoch": "2026-04-04T05:51:35.392032Z",
      "apogee_km": 1208.242397489421,
      "perigee_km": 1195.0650828834214,
      "latitude_deg": 1.8712689017722007e-05,
      "longitude_deg": 153.49692905884,
      "height_km": 1205.7395789823806,
      "semi_major_axis_km": 7579.79074018642,
      "eccentricity": 0.00086924,
      "inclination_deg": 100.1063,
      "raan_deg": 73.9613,
      "arg_perigee_deg": 258.1355,
      "mean_anomaly_deg": 101.8784,
      "mean_motion_rev_day": 13.15579017
    },
    {
      "epoch": "2026-04-05T14:42:46.984320Z",
      "apogee_km": 1208.2387617973309,
      "perigee_km": 1195.061604970505,
      "latitude_deg": -3.1021253787426085e-05,
      "longitude_deg": 20.656401056783874,
      "height_km": 1206.1301953905188,
      "semi_major_axis_km": 7579.787183383918,
      "eccentricity": 0.00086923,
      "inclination_deg": 100.1069,
      "raan_deg": 75.2683,
      "arg_perigee_deg": 254.6079,
      "mean_anomaly_deg": 105.4074,
      "mean_motion_rev_day": 13.15579943
    },
    {
      "epoch": "2026-04-05T22:00:49.521312Z",
      "apogee_km": 1208.2374393936825,
      "perigee_km": 1195.0592246154592,
      "latitude_deg": -1.5166249735867535e-05,
      "longitude_deg": -88.86350238879348,
      "height_km": 1206.219779289809,
      "semi_major_axis_km": 7579.785332004571,
      "eccentricity": 0.0008693,
      "inclination_deg": 100.107,
      "raan_deg": 75.5588,
      "arg_perigee_deg": 253.7829,
      "mean_anomaly_deg": 106.2328,
      "mean_motion_rev_day": 13.15580425
    },
    {
      "epoch": "2026-04-06T05:18:52.043616Z",
      "apogee_km": 1208.211002466528,
      "perigee_km": 1195.0756979064754,
      "latitude_deg": -1.0051189183780269e-05,
      "longitude_deg": 161.616857285087,
      "height_km": 1206.271917083035,
      "semi_major_axis_km": 7579.780350186501,
      "eccentricity": 0.00086647,
      "inclination_deg": 100.1072,
      "raan_deg": 75.8495,
      "arg_perigee_deg": 253.2086,
      "mean_anomaly_deg": 106.8077,
      "mean_motion_rev_day": 13.15581722
    },
    {
      "epoch": "2026-04-07T14:10:03.541728Z",
      "apogee_km": 1208.227562403481,
      "perigee_km": 1195.0631480046095,
      "latitude_deg": 2.1806740924753775e-06,
      "longitude_deg": 28.776909921544558,
      "height_km": 1206.6343530158226,
      "semi_major_axis_km": 7579.782355204045,
      "eccentricity": 0.00086839,
      "inclination_deg": 100.1077,
      "raan_deg": 77.1567,
      "arg_perigee_deg": 249.9399,
      "mean_anomaly_deg": 110.078,
      "mean_motion_rev_day": 13.155812
    },
    {
      "epoch": "2026-04-07T21:28:06.096864Z",
      "apogee_km": 1208.2442816948505,
      "perigee_km": 1195.0493939899352,
      "latitude_deg": -6.412783691029193e-05,
      "longitude_deg": -80.74325510538972,
      "height_km": 1206.7438522060083,
      "semi_major_axis_km": 7579.783837842393,
      "eccentricity": 0.0008704,
      "inclination_deg": 100.1078,
      "raan_deg": 77.447,
      "arg_perigee_deg": 248.9867,
      "mean_anomaly_deg": 111.0315,
      "mean_motion_rev_day": 13.15580814
    },
    {
      "epoch": "2026-04-08T15:43:12.556416Z",
      "apogee_km": 1208.2492827781516,
      "perigee_km": 1195.0527202717376,
      "latitude_deg": -1.2521127988073596e-05,
      "longitude_deg": 5.45654405168179,
      "height_km": 1206.9229391639833,
      "semi_major_axis_km": 7579.788001524945,
      "eccentricity": 0.00087051,
      "inclination_deg": 100.1079,
      "raan_deg": 78.1733,
      "arg_perigee_deg": 247.3532,
      "mean_anomaly_deg": 112.6661,
      "mean_motion_rev_day": 13.1557973
    },
    {
      "epoch": "2026-04-09T20:55:22.922112Z",
      "apogee_km": 1208.2661856289487,
      "perigee_km": 1195.047025580774,
      "latitude_deg": 7.349670538042388e-06,
      "longitude_deg": -72.62417311322159,
      "height_km": 1207.2614586248274,
      "semi_major_axis_km": 7579.793605604861,
      "eccentricity": 0.000872,
      "inclination_deg": 100.1078,
      "raan_deg": 79.3351,
      "arg_perigee_deg": 244.2301,
      "mean_anomaly_deg": 115.7913,
      "mean_motion_rev_day": 13.15578271
    }
  ]
}